[{"OBJECT_NAME":"ONEWEB-0025","OBJECT_ID":"2020-008H","EPOCH":"2026-03-09T22:33:43.965216","MEAN_MOTION":13.10877605,"ECCENTRICITY":0.00015138,"INCLINATION":87.8781,"RA_OF_ASC_NODE":56.0018,"ARG_OF_PERICENTER":88.3912,"MEAN_ANOMALY":271.7389,"EPHEMERIS_TYPE":0,"CLASSIFICATION_TYPE":"U","NORAD_CAT_ID":45138,"ELEMENT_SET_NO":999,"REV_AT_EPOCH":29557,"BSTAR":0.0014929849,"MEAN_MOTION_DOT":5.38e-6,"MEAN_MOTION_DDOT":0},{"OBJECT_NAME":"SL-8 DEB","OBJECT_ID":"1965-020EH","EPOCH":"2026-03-09T20:15:52.132896","MEAN_MOTION":13.12160412,"ECCENTRICITY":0.0582062,"INCLINATION":55.6717,"RA_OF_ASC_NODE":269.0575,"ARG_OF_PERICENTER":218.897,"MEAN_ANOMALY":136.8697,"EPHEMERIS_TYPE":0,"CLASSIFICATION_TYPE":"U","NORAD_CAT_ID":2334,"ELEMENT_SET_NO":999,"REV_AT_EPOCH":83790,"BSTAR":0.00075294999,"MEAN_MOTION_DOT":5.2e-6,"MEAN_MOTION_DDOT":0}]
